{"version": 0.6, "generator": "Overpass API 0.7.60.2 e4cf9f7a", "osm3s": {"timestamp_osm_base": "2023-05-09T19:19:39Z", "copyright": "The data included in this document is from www.openstreetmap.org. The data is made available under ODbL."}, "elements": [{"type": "node", "id": 331525886, "lat": 34.7065039, "lon": -83.9152871, "tags": {"amenity": "toilets", "fee": "no"}}, {"type": "node", "id": 1112529291, "lat": 34.778173, "lon": -83.7368829, "tags": {"amenity": "toilets"}}, {"type": "node", "id": 2324985152, "lat": 34.7351146, "lon": -83.9178658, "tags": {"amenity": "toilets"}}, {"type": "node", "id": 3905758369, "lat": 34.8173803, "lon": -83.7671979, "tags": {"amenity": "toilets", "toilets:disposal": "pitlatrine"}}, {"type": "node", "id": 3962040469, "lat": 34.765633, "lon": -83.9241986, "tags": {"amenity": "toilets", "check_date": "2022-05-08", "male": "yes"}}, {"type": "node", "id": 3962040470, "lat": 34.7656319, "lon": -83.9242348, "tags": {"amenity": "toilets", "check_date": "2022-05-08", "female": "yes"}}, {"type": "node", "id": 3966548551, "lat": 34.767286, "lon": -83.9226038, "tags": {"amenity": "toilets", "male": "yes"}}, {"type": "node", "id": 3966548552, "lat": 34.7672684, "lon": -83.9226762, "tags": {"amenity": "toilets", "female": "yes"}}, {"type": "node", "id": 3980579566, "lat": 34.6779675, "lon": -83.9997618, "tags": {"amenity": "toilets", "male": "yes"}}, {"type": "node", "id": 3980579567, "lat": 34.6780028, "lon": -83.9997313, "tags": {"amenity": "toilets", "female": "yes"}}, {"type": "node", "id": 4158636485, "lat": 34.6180142, "lon": -84.1985041, "tags": {"access": "yes", "amenity": "toilets", "changing_table": "no", "toilets:disposal": "pitlatrine", "toilets:handwashing": "no", "unisex": "yes", "wheelchair": "no"}}, {"type": "node", "id": 4175089391, "lat": 34.6560618, "lon": -84.0498344, "tags": {"amenity": "toilets", "name": "Privy", "toilets:disposal": "pitlatrine"}}, {"type": "node", "id": 4203341950, "lat": 34.7403406, "lon": -83.9376974, "tags": {"amenity": "toilets", "name": "privy"}}, {"type": "node", "id": 4224612614, "lat": 34.7393116, "lon": -83.97165, "tags": {"amenity": "toilets"}}, {"type": "node", "id": 4310152687, "lat": 34.666729, "lon": -84.1361979, "tags": {"amenity": "toilets", "toilets:disposal": "pitlatrine"}}, {"type": "node", "id": 4310164672, "lat": 34.6658038, "lon": -84.1468142, "tags": {"amenity": "toilets", "name": "Privy", "toilets:disposal": "pitlatrine"}}, {"type": "node", "id": 4374970664, "lat": 34.6289719, "lon": -84.193661, "tags": {"amenity": "toilets", "changing_table": "no", "toilets:disposal": "pitlatrine", "toilets:handwashing": "no", "unisex": "yes", "wheelchair": "no"}}, {"type": "node", "id": 4374970665, "lat": 34.6291751, "lon": -84.1924201, "tags": {"amenity": "toilets", "changing_table": "no", "toilets:disposal": "pitlatrine", "toilets:handwashing": "no", "unisex": "yes", "wheelchair": "no"}}, {"type": "node", "id": 4451126213, "lat": 34.6508117, "lon": -84.1971648, "tags": {"amenity": "toilets", "toilets:disposal": "pitlatrine"}}, {"type": "node", "id": 4707075806, "lat": 34.7366867, "lon": -83.9548551, "tags": {"amenity": "toilets", "name": "Privy"}}, {"type": "node", "id": 4771991030, "lat": 34.7123953, "lon": -83.8346406, "tags": {"amenity": "toilets", "name": "Privy"}}, {"type": "node", "id": 4842638416, "lat": 34.6745854, "lon": -83.974861, "tags": {"amenity": "toilets", "opening_hours": "Mar 17-Dec 21 open", "toilets:disposal": "flush"}}, {"type": "node", "id": 4842638468, "lat": 34.6730835, "lon": -83.9768084, "tags": {"amenity": "toilets", "fee": "no", "operator": "United States Forest Service", "toilets:disposal": "pitlatrine"}}, {"type": "node", "id": 4854914565, "lat": 34.7008984, "lon": -84.1486852}, {"type": "node", "id": 4854914566, "lat": 34.7008653, "lon": -84.1486848}, {"type": "node", "id": 4854914567, "lat": 34.700865, "lon": -84.1487217}, {"type": "node", "id": 4854914568, "lat": 34.7008981, "lon": -84.148722}, {"type": "node", "id": 4872582668, "lat": 34.7910516, "lon": -83.7841179, "tags": {"amenity": "toilets"}}, {"type": "node", "id": 4872582670, "lat": 34.7883818, "lon": -83.7830174, "tags": {"amenity": "toilets"}}, {"type": "node", "id": 4937554531, "lat": 34.7639647, "lon": -84.0669663}, {"type": "node", "id": 4937554532, "lat": 34.7639308, "lon": -84.0669633}, {"type": "node", "id": 4937554533, "lat": 34.763928, "lon": -84.0670102}, {"type": "node", "id": 4937554534, "lat": 34.7639619, "lon": -84.0670132}, {"type": "node", "id": 5007828352, "lat": 34.7612514, "lon": -84.074598}, {"type": "node", "id": 5007828353, "lat": 34.7612837, "lon": -84.0745858}, {"type": "node", "id": 5007828354, "lat": 34.7612717, "lon": -84.0745392}, {"type": "node", "id": 5007828355, "lat": 34.7612394, "lon": -84.0745515}, {"type": "node", "id": 5746074554, "lat": 34.7761736, "lon": -83.8237779, "tags": {"amenity": "toilets", "name": "Privy"}}, {"type": "node", "id": 5748421751, "lat": 34.6609716, "lon": -84.0447205, "tags": {"access": "private", "amenity": "toilets", "changing_table": "no", "fee": "no", "female": "yes"}}, {"type": "node", "id": 5748421752, "lat": 34.6609931, "lon": -84.0446984, "tags": {"access": "private", "amenity": "toilets", "changing_table": "no", "fee": "no", "male": "yes"}}, {"type": "node", "id": 5842608783, "lat": 34.7522607, "lon": -83.7865394, "tags": {"amenity": "toilets"}}, {"type": "node", "id": 6120301475, "lat": 35.0077997, "lon": -83.7932028}, {"type": "node", "id": 6120301476, "lat": 35.0077529, "lon": -83.7932801}, {"type": "node", "id": 6120301477, "lat": 35.0078066, "lon": -83.7933285}, {"type": "node", "id": 6120301478, "lat": 35.0078534, "lon": -83.7932513}, {"type": "node", "id": 6120364356, "lat": 35.00819, "lon": -83.7966209}, {"type": "node", "id": 6120364357, "lat": 35.0081019, "lon": -83.7966399}, {"type": "node", "id": 6120364358, "lat": 35.008119, "lon": -83.7967578}, {"type": "node", "id": 6120364359, "lat": 35.0082071, "lon": -83.7967388}, {"type": "node", "id": 6120364360, "lat": 35.0090976, "lon": -83.7967068}, {"type": "node", "id": 6120364361, "lat": 35.0090467, "lon": -83.796774}, {"type": "node", "id": 6120364362, "lat": 35.0090928, "lon": -83.7968262}, {"type": "node", "id": 6120364363, "lat": 35.0091437, "lon": -83.796759}, {"type": "node", "id": 6120398307, "lat": 35.0133576, "lon": -83.7987967}, {"type": "node", "id": 6120398308, "lat": 35.0132929, "lon": -83.7988392}, {"type": "node", "id": 6120398309, "lat": 35.0132599, "lon": -83.7987642}, {"type": "node", "id": 6120398310, "lat": 35.0133246, "lon": -83.7987218}, {"type": "node", "id": 6858181063, "lat": 35.0078058, "lon": -83.7932573, "tags": {"amenity": "toilets"}}, {"type": "node", "id": 7189381852, "lat": 35.0452549, "lon": -83.817457, "tags": {"amenity": "toilets", "name": "Public Restroom"}}, {"type": "node", "id": 9632364406, "lat": 34.7397859, "lon": -84.1402099}, {"type": "node", "id": 9632364407, "lat": 34.7397536, "lon": -84.1401897}, {"type": "node", "id": 9632364408, "lat": 34.739772, "lon": -84.1401461}, {"type": "node", "id": 9632364409, "lat": 34.7398043, "lon": -84.1401663}, {"type": "node", "id": 9712414459, "lat": 34.8741985, "lon": -83.810777, "tags": {"amenity": "toilets", "male": "yes", "toilets:disposal": "flush", "wheelchair": "yes"}}, {"type": "node", "id": 9712414460, "lat": 34.8743221, "lon": -83.8107077, "tags": {"amenity": "toilets", "female": "yes", "toilets:disposal": "flush", "wheelchair": "yes"}}, {"type": "node", "id": 9759931432, "lat": 34.870616, "lon": -83.8100709, "tags": {"amenity": "toilets", "wheelchair": "yes"}}, {"type": "node", "id": 9759931433, "lat": 34.8692317, "lon": -83.8102532, "tags": {"amenity": "toilets"}}, {"type": "node", "id": 10069515724, "lat": 34.7090039, "lon": -83.9134084, "tags": {"amenity": "toilets", "male": "yes"}}, {"type": "node", "id": 10069515725, "lat": 34.7090031, "lon": -83.9134389, "tags": {"amenity": "toilets", "female": "yes"}}, {"type": "node", "id": 10205280608, "lat": 35.0012349, "lon": -83.7623655}, {"type": "node", "id": 10205280609, "lat": 35.0011924, "lon": -83.762398}, {"type": "node", "id": 10205280610, "lat": 35.0011658, "lon": -83.7623401}, {"type": "node", "id": 10205280611, "lat": 35.0012083, "lon": -83.7623076}, {"type": "way", "id": 493591122, "nodes": [4854914568, 4854914567, 4854914566, 4854914565, 4854914568], "tags": {"access": "yes", "amenity": "toilets", "building": "yes", "capacity": "2", "toilets:disposal": "pitlatrine", "unisex": "yes", "wheelchair": "yes"}}, {"type": "way", "id": 503446820, "nodes": [4937554531, 4937554532, 4937554533, 4937554534, 4937554531], "tags": {"amenity": "toilets", "building": "yes", "building:levels": "1", "building:material": "wood", "fee": "no", "opening_hours": "24/7", "operator": "Cooper Creek Recreation Area", "roof:colour": "brown", "roof:shape": "gabled", "toilets:disposal": "pitlatrine"}}, {"type": "way", "id": 512108755, "nodes": [5007828352, 5007828353, 5007828354, 5007828355, 5007828352], "tags": {"amenity": "toilets", "building": "yes", "building:levels": "1", "capacity": "2", "opening_hours": "24/7", "roof:shape": "gabled"}}, {"type": "way", "id": 652985630, "nodes": [6120301475, 6120301476, 6120301477, 6120301478, 6120301475], "tags": {"access": "yes", "amenity": "toilets", "building": "yes", "fee": "no", "toilets:disposal": "flush"}}, {"type": "way", "id": 652993138, "nodes": [6120364356, 6120364357, 6120364358, 6120364359, 6120364356], "tags": {"access": "yes", "amenity": "toilets", "building": "yes", "fee": "no", "toilets:disposal": "flush"}}, {"type": "way", "id": 652993139, "nodes": [6120364360, 6120364361, 6120364362, 6120364363, 6120364360], "tags": {"access": "yes", "amenity": "toilets", "building": "yes", "fee": "no", "toilets:disposal": "flush"}}, {"type": "way", "id": 652998520, "nodes": [6120398307, 6120398308, 6120398309, 6120398310, 6120398307], "tags": {"access": "yes", "amenity": "toilets", "building": "yes", "fee": "no", "toilets:disposal": "flush"}}, {"type": "way", "id": 1047524853, "nodes": [9632364406, 9632364407, 9632364408, 9632364409, 9632364406], "tags": {"amenity": "toilets", "building": "yes"}}, {"type": "way", "id": 1115829657, "nodes": [10205280608, 10205280609, 10205280610, 10205280611, 10205280608], "tags": {"amenity": "toilets", "building": "yes"}}]}