{"version": 0.6, "generator": "Overpass API 0.7.60 f4c14d41", "osm3s": {"timestamp_osm_base": "2023-05-08T14:20:41Z", "copyright": "The data included in this document is from www.openstreetmap.org. The data is made available under ODbL."}, "elements": [{"type": "node", "id": 33177561, "lat": 40.1651302, "lon": -77.4068947, "tags": {"amenity": "toilets", "created_by": "JOSM"}}, {"type": "node", "id": 130237589, "lat": 40.0682469, "lon": -76.9087942, "tags": {"amenity": "toilets"}}, {"type": "node", "id": 1663553129, "lat": 40.1091969, "lon": -76.9277284, "tags": {"amenity": "toilets"}}, {"type": "node", "id": 2291677898, "lat": 40.2786044, "lon": -76.9421489}, {"type": "node", "id": 2291677899, "lat": 40.2786108, "lon": -76.9420034}, {"type": "node", "id": 2291677900, "lat": 40.2786572, "lon": -76.9421529}, {"type": "node", "id": 2291677901, "lat": 40.2786635, "lon": -76.9420074}, {"type": "node", "id": 2549078617, "lat": 40.2389554, "lon": -77.0652657, "tags": {"amenity": "toilets", "name": "Stadium Restrooms"}}, {"type": "node", "id": 2629290158, "lat": 40.0981078, "lon": -77.0972059, "tags": {"amenity": "toilets"}}, {"type": "node", "id": 2629290991, "lat": 40.0975263, "lon": -77.0956342, "tags": {"amenity": "toilets"}}, {"type": "node", "id": 3454026708, "lat": 40.189072, "lon": -76.9528728, "tags": {"access": "permissive", "amenity": "toilets", "operator": "Upper Allen Township", "toilets:disposal": "flush"}}, {"type": "node", "id": 3872271513, "lat": 40.2306025, "lon": -77.280295}, {"type": "node", "id": 3872271514, "lat": 40.2305674, "lon": -77.2802788}, {"type": "node", "id": 3872271515, "lat": 40.2305807, "lon": -77.2802295}, {"type": "node", "id": 3872271516, "lat": 40.2306158, "lon": -77.2802457}, {"type": "node", "id": 3915382222, "lat": 40.1480833, "lon": -77.3168215}, {"type": "node", "id": 3915382223, "lat": 40.1481253, "lon": -77.3166713}, {"type": "node", "id": 3915385444, "lat": 40.1481069, "lon": -77.3166606}, {"type": "node", "id": 3915385445, "lat": 40.1480654, "lon": -77.316621}, {"type": "node", "id": 3915385446, "lat": 40.14803, "lon": -77.3166103}, {"type": "node", "id": 3915385447, "lat": 40.1480218, "lon": -77.3166324}, {"type": "node", "id": 3915385448, "lat": 40.1479988, "lon": -77.3166264}, {"type": "node", "id": 3915385449, "lat": 40.1479721, "lon": -77.3167236}, {"type": "node", "id": 3915385450, "lat": 40.1479583, "lon": -77.3167699}, {"type": "node", "id": 4485288359, "lat": 39.8377974, "lon": -77.2524775, "tags": {"amenity": "toilets"}}, {"type": "node", "id": 4516208650, "lat": 40.0830795, "lon": -77.2708945}, {"type": "node", "id": 4516208651, "lat": 40.0830385, "lon": -77.2708449}, {"type": "node", "id": 4516208652, "lat": 40.0830108, "lon": -77.2708851}, {"type": "node", "id": 4516208653, "lat": 40.0830549, "lon": -77.2709348}, {"type": "node", "id": 5367257129, "lat": 40.2786618, "lon": -76.9420475}, {"type": "node", "id": 5369233196, "lat": 40.2694472, "lon": -76.9752561}, {"type": "node", "id": 5369233197, "lat": 40.2693605, "lon": -76.9751918}, {"type": "node", "id": 5369233198, "lat": 40.2693911, "lon": -76.9751209}, {"type": "node", "id": 5369233199, "lat": 40.2694778, "lon": -76.9751852}, {"type": "node", "id": 5369233376, "lat": 40.2702503, "lon": -76.9779318}, {"type": "node", "id": 5369233377, "lat": 40.2701859, "lon": -76.9779457}, {"type": "node", "id": 5369233378, "lat": 40.2701702, "lon": -76.977821}, {"type": "node", "id": 5369233379, "lat": 40.2702346, "lon": -76.9778071}, {"type": "node", "id": 5406655150, "lat": 40.2502707, "lon": -76.9257758}, {"type": "node", "id": 5406655151, "lat": 40.2502883, "lon": -76.9256885}, {"type": "node", "id": 5406655152, "lat": 40.2501557, "lon": -76.9256377}, {"type": "node", "id": 5406655153, "lat": 40.2501375, "lon": -76.9257203}, {"type": "node", "id": 5409214875, "lat": 40.2351092, "lon": -76.9785661}, {"type": "node", "id": 5409214876, "lat": 40.2351015, "lon": -76.9786698}, {"type": "node", "id": 5409214877, "lat": 40.2349226, "lon": -76.978647}, {"type": "node", "id": 5409214878, "lat": 40.2349303, "lon": -76.9785433}, {"type": "node", "id": 5509534968, "lat": 40.258835, "lon": -77.0410708, "tags": {"amenity": "toilets", "toilets:disposal": "chemical", "unisex": "yes"}}, {"type": "node", "id": 5567811452, "lat": 40.2272178, "lon": -77.1730089}, {"type": "node", "id": 5567811453, "lat": 40.2271961, "lon": -77.1730495}, {"type": "node", "id": 5567811454, "lat": 40.2271529, "lon": -77.1730101}, {"type": "node", "id": 5567811455, "lat": 40.2271745, "lon": -77.1729694}, {"type": "node", "id": 5577446420, "lat": 40.2044366, "lon": -77.2790527, "tags": {"amenity": "toilets"}}, {"type": "node", "id": 5577446421, "lat": 40.203251, "lon": -77.2769595, "tags": {"amenity": "toilets"}}, {"type": "node", "id": 5577446422, "lat": 40.2055678, "lon": -77.2768642, "tags": {"amenity": "toilets"}}, {"type": "node", "id": 5735653865, "lat": 40.2323513, "lon": -77.2194127}, {"type": "node", "id": 5735653866, "lat": 40.2323503, "lon": -77.2193108}, {"type": "node", "id": 5735653867, "lat": 40.2322295, "lon": -77.2193121}, {"type": "node", "id": 5735653868, "lat": 40.2322285, "lon": -77.2194127}, {"type": "node", "id": 5759318726, "lat": 40.2756084, "lon": -76.9398385, "tags": {"amenity": "toilets", "changing_table": "yes", "fee": "no", "female": "yes", "seasonal": "spring-autumn", "toilets:disposal": "flush", "wheelchair": "yes"}}, {"type": "node", "id": 5759318727, "lat": 40.275552, "lon": -76.9398276, "tags": {"amenity": "toilets", "fee": "no", "male": "yes", "seasonal": "spring-autumn", "toilets:disposal": "flush", "wheelchair": "yes"}}, {"type": "node", "id": 6062786528, "lat": 40.2740134, "lon": -76.9371863, "tags": {"amenity": "toilets", "toilets:disposal": "chemical", "unisex": "yes", "wheelchair": "yes"}}, {"type": "node", "id": 6062786564, "lat": 40.2740705, "lon": -76.9360801, "tags": {"amenity": "toilets", "toilets:disposal": "chemical", "unisex": "yes"}}, {"type": "node", "id": 6287407577, "lat": 40.1702202, "lon": -76.9153529, "tags": {"amenity": "toilets", "toilets:disposal": "flush"}}, {"type": "node", "id": 6387202833, "lat": 40.2562269, "lon": -77.0193401, "tags": {"amenity": "toilets", "toilets:disposal": "chemical", "unisex": "yes", "wheelchair": "yes"}}, {"type": "node", "id": 6749164723, "lat": 40.2781446, "lon": -76.9405201, "tags": {"amenity": "toilets", "toilets:disposal": "chemical", "unisex": "yes"}}, {"type": "node", "id": 6749164724, "lat": 40.2764361, "lon": -76.9419873, "tags": {"amenity": "toilets", "toilets:disposal": "chemical", "unisex": "yes"}}, {"type": "node", "id": 6749164725, "lat": 40.27428, "lon": -76.9412283, "tags": {"amenity": "toilets", "toilets:disposal": "chemical", "unisex": "yes"}}, {"type": "node", "id": 6749164829, "lat": 40.27778, "lon": -76.9432293, "tags": {"amenity": "toilets", "toilets:disposal": "chemical", "unisex": "yes"}}, {"type": "node", "id": 7137161450, "lat": 39.8940292, "lon": -76.9794577}, {"type": "node", "id": 7137161451, "lat": 39.8939746, "lon": -76.9794689}, {"type": "node", "id": 7137161452, "lat": 39.8939637, "lon": -76.9793876}, {"type": "node", "id": 7137161453, "lat": 39.894019, "lon": -76.9793774}, {"type": "node", "id": 7184465263, "lat": 40.2424128, "lon": -76.9298651, "tags": {"amenity": "toilets", "fee": "no", "female": "yes", "wheelchair": "yes"}}, {"type": "node", "id": 7184465264, "lat": 40.2423852, "lon": -76.9298579, "tags": {"amenity": "toilets", "fee": "no", "male": "yes", "wheelchair": "yes"}}, {"type": "node", "id": 7657470883, "lat": 40.1998885, "lon": -77.2145952, "tags": {"amenity": "toilets", "male": "yes"}}, {"type": "node", "id": 7657470884, "lat": 40.1998629, "lon": -77.2148275, "tags": {"amenity": "toilets", "female": "yes"}}, {"type": "node", "id": 7855209159, "lat": 40.2097676, "lon": -77.206356, "tags": {"amenity": "toilets", "male": "yes"}}, {"type": "node", "id": 7855209160, "lat": 40.2096321, "lon": -77.2063618, "tags": {"amenity": "toilets", "female": "yes"}}, {"type": "node", "id": 7907993150, "lat": 40.0265789, "lon": -77.3113551, "tags": {"amenity": "toilets"}}, {"type": "node", "id": 8545106661, "lat": 40.2729535, "lon": -77.2908226, "tags": {"amenity": "toilets", "toilets:disposal": "pitlatrine"}}, {"type": "node", "id": 8665827907, "lat": 40.255987, "lon": -77.0110777, "tags": {"access": "yes", "amenity": "toilets", "toilets:disposal": "chemical", "unisex": "yes", "wheelchair": "yes"}}, {"type": "node", "id": 8665827908, "lat": 40.2560113, "lon": -77.0110898, "tags": {"access": "yes", "amenity": "toilets", "changing_table": "no", "toilets:disposal": "chemical", "toilets:handwashing": "disinfection", "toilets:position": "seated;urinal", "unisex": "yes", "wheelchair": "no"}}, {"type": "node", "id": 9720880099, "lat": 40.1745656, "lon": -77.0018383, "tags": {"access": "yes", "amenity": "toilets", "toilets:disposal": "flush", "unisex": "yes", "wheelchair": "yes"}}, {"type": "node", "id": 9720880100, "lat": 40.1739679, "lon": -77.0006731, "tags": {"access": "yes", "amenity": "toilets", "toilets:disposal": "chemical", "unisex": "yes"}}, {"type": "node", "id": 9720917912, "lat": 40.1783234, "lon": -77.0048694, "tags": {"access": "yes", "amenity": "toilets", "toilets:disposal": "flush", "unisex": "yes", "wheelchair": "yes"}}, {"type": "node", "id": 10032006174, "lat": 40.0251474, "lon": -77.3118942, "tags": {"access": "yes", "amenity": "toilets", "changing_table": "yes", "toilets:disposal": "flush", "unisex": "yes"}}, {"type": "node", "id": 10126746296, "lat": 39.9878641, "lon": -77.4016767}, {"type": "node", "id": 10126746297, "lat": 39.987861, "lon": -77.4016271}, {"type": "node", "id": 10126746298, "lat": 39.9879028, "lon": -77.4016227}, {"type": "node", "id": 10126746299, "lat": 39.9879059, "lon": -77.4016723}, {"type": "node", "id": 10167504778, "lat": 39.9851562, "lon": -77.4201044, "tags": {"amenity": "toilets", "name": "Privy", "operator": "PATC", "toilets:disposal": "pitlatrine", "toilets:position": "seated", "unisex": "yes"}}, {"type": "node", "id": 10650507953, "lat": 39.9225503, "lon": -77.2342303, "tags": {"amenity": "toilets", "portable": "yes"}}, {"type": "node", "id": 10650508003, "lat": 39.9193636, "lon": -77.2349383, "tags": {"amenity": "toilets", "portable": "yes"}}, {"type": "way", "id": 220048810, "nodes": [2291677900, 5367257129, 2291677901, 2291677899, 2291677898, 2291677900], "tags": {"amenity": "toilets", "building": "yes", "building:levels": "1", "changing_table": "no", "fee": "no", "toilets:disposal": "flush", "unisex": "yes"}}, {"type": "way", "id": 383921648, "nodes": [3872271513, 3872271514, 3872271515, 3872271516, 3872271513], "tags": {"access": "yes", "amenity": "toilets", "building": "yes", "toilets:disposal": "pitlatrine", "unisex": "yes"}}, {"type": "way", "id": 388327283, "nodes": [3915385444, 3915385445, 3915385446, 3915385447, 3915385448, 3915385449, 3915385450, 3915382222, 3915382223, 3915385444], "tags": {"amenity": "toilets", "building": "yes"}}, {"type": "way", "id": 455182304, "nodes": [4516208653, 4516208652, 4516208651, 4516208650, 4516208653], "tags": {"access": "yes", "amenity": "toilets", "building": "yes", "female": "yes", "male": "yes", "operator": "PA DCNR", "toilets:disposal": "pitlatrine", "toilets:position": "seated;urinal", "wheelchair": "yes"}}, {"type": "way", "id": 556607883, "nodes": [5369233196, 5369233197, 5369233198, 5369233199, 5369233196], "tags": {"amenity": "toilets", "building": "yes", "fee": "no", "seasonal": "yes", "toilets:disposal": "flush", "unisex": "yes"}}, {"type": "way", "id": 556607900, "nodes": [5369233376, 5369233377, 5369233378, 5369233379, 5369233376], "tags": {"amenity": "toilets", "building": "yes", "fee": "no", "seasonal": "yes", "unisex": "yes"}}, {"type": "way", "id": 560640347, "nodes": [5406655150, 5406655151, 5406655152, 5406655153, 5406655150], "tags": {"amenity": "toilets", "building": "yes", "fee": "no", "toilets:disposal": "flush", "unisex": "yes"}}, {"type": "way", "id": 560919063, "nodes": [5409214875, 5409214876, 5409214877, 5409214878, 5409214875], "tags": {"amenity": "toilets", "building": "yes", "toilets:disposal": "flush", "unisex": "yes"}}, {"type": "way", "id": 582064028, "nodes": [5567811452, 5567811453, 5567811454, 5567811455, 5567811452], "tags": {"access": "yes", "amenity": "toilets", "building": "yes", "fee": "no", "toilets:disposal": "flush", "unisex": "yes"}}, {"type": "way", "id": 604477789, "nodes": [5735653865, 5735653866, 5735653867, 5735653868, 5735653865], "tags": {"amenity": "toilets", "building": "yes"}}, {"type": "way", "id": 763955480, "nodes": [7137161450, 7137161451, 7137161452, 7137161453, 7137161450], "tags": {"amenity": "toilets", "building": "yes"}}, {"type": "way", "id": 1106664792, "nodes": [10126746299, 10126746298, 10126746297, 10126746296, 10126746299], "tags": {"access": "yes", "amenity": "toilets", "building": "yes", "drinking_water": "no", "female": "yes", "male": "yes", "operator": "Pennsylvania Department of Conservation and Natural Resources", "toilets:disposal": "pitlatrine", "toilets:position": "seated", "wheelchair": "yes"}}]}