{"version": 0.6, "generator": "Overpass API 0.7.60.2 e4cf9f7a", "osm3s": {"timestamp_osm_base": "2023-05-09T14:49:24Z", "copyright": "The data included in this document is from www.openstreetmap.org. The data is made available under ODbL."}, "elements": [{"type": "node", "id": 938569438, "lat": 41.3119625, "lon": -74.0062246}, {"type": "node", "id": 938569439, "lat": 41.3119976, "lon": -74.0061366}, {"type": "node", "id": 938569440, "lat": 41.31186, "lon": -74.0060393}, {"type": "node", "id": 938569441, "lat": 41.3118249, "lon": -74.0061273}, {"type": "node", "id": 1114457072, "lat": 41.5465961, "lon": -73.7220887, "tags": {"amenity": "toilets", "highway": "rest_area"}}, {"type": "node", "id": 1114457089, "lat": 41.5482322, "lon": -73.7232715, "tags": {"amenity": "toilets", "highway": "rest_area"}}, {"type": "node", "id": 1711557243, "lat": 41.3101675, "lon": -73.9901501}, {"type": "node", "id": 1711557244, "lat": 41.3101816, "lon": -73.9900309}, {"type": "node", "id": 1711557248, "lat": 41.3103156, "lon": -73.9901812}, {"type": "node", "id": 1711557249, "lat": 41.3103297, "lon": -73.9900619}, {"type": "node", "id": 1711557255, "lat": 41.3105777, "lon": -73.9896766, "tags": {"amenity": "toilets"}}, {"type": "node", "id": 1921044315, "lat": 41.4632554, "lon": -73.8275025, "tags": {"amenity": "toilets"}}, {"type": "node", "id": 1921047605, "lat": 41.4607734, "lon": -73.8266518, "tags": {"amenity": "toilets"}}, {"type": "node", "id": 2408038878, "lat": 41.31199, "lon": -74.0061558, "tags": {"amenity": "vending_machine", "vending": "drinks"}}, {"type": "node", "id": 3019341773, "lat": 41.4152594, "lon": -73.9502657, "tags": {"access": "yes", "amenity": "toilets", "toilets:disposal": "chemical"}}, {"type": "node", "id": 3074087953, "lat": 41.5768028, "lon": -73.8046767, "tags": {"access": "yes", "amenity": "toilets", "operator": "East Fishkill", "toilets:disposal": "flush"}}, {"type": "node", "id": 3762148674, "lat": 41.316525, "lon": -73.9899378, "tags": {"amenity": "toilets", "drinking_water": "no", "female": "yes", "male": "yes", "toilets:disposal": "flush"}}, {"type": "node", "id": 3927311001, "lat": 41.4170923, "lon": -73.9596832, "tags": {"amenity": "toilets"}}, {"type": "node", "id": 4896176946, "lat": 41.6012099, "lon": -73.9153503, "tags": {"amenity": "toilets"}}, {"type": "node", "id": 4948866475, "lat": 41.4181935, "lon": -73.8422706}, {"type": "node", "id": 4948866476, "lat": 41.4181599, "lon": -73.8421651}, {"type": "node", "id": 4948866477, "lat": 41.4180875, "lon": -73.8421988}, {"type": "node", "id": 4948866478, "lat": 41.4181195, "lon": -73.8423132}, {"type": "node", "id": 4948866491, "lat": 41.4187674, "lon": -73.844968}, {"type": "node", "id": 4948866492, "lat": 41.4187286, "lon": -73.8448939}, {"type": "node", "id": 4948866493, "lat": 41.4186563, "lon": -73.844959}, {"type": "node", "id": 4948866494, "lat": 41.4186967, "lon": -73.8450286}, {"type": "node", "id": 4948866507, "lat": 41.4191125, "lon": -73.8438786}, {"type": "node", "id": 4948866508, "lat": 41.4190513, "lon": -73.8438967}, {"type": "node", "id": 4948866509, "lat": 41.4190662, "lon": -73.8439862}, {"type": "node", "id": 4948866510, "lat": 41.4191274, "lon": -73.8439682}, {"type": "node", "id": 7465216849, "lat": 41.52225, "lon": -73.8459704}, {"type": "node", "id": 7465216850, "lat": 41.5222433, "lon": -73.8459432}, {"type": "node", "id": 7465216851, "lat": 41.522232, "lon": -73.8459481}, {"type": "node", "id": 7465216852, "lat": 41.5222387, "lon": -73.8459753}, {"type": "node", "id": 8897993175, "lat": 41.603076, "lon": -73.8364952, "tags": {"access": "yes", "amenity": "toilets", "changing_table": "no", "toilets:disposal": "chemical", "unisex": "yes", "wheelchair": "yes"}}, {"type": "node", "id": 8898725372, "lat": 41.5852869, "lon": -73.8065216}, {"type": "node", "id": 8898725373, "lat": 41.5852598, "lon": -73.8065626}, {"type": "node", "id": 8898725374, "lat": 41.5852285, "lon": -73.8065255}, {"type": "node", "id": 8898725375, "lat": 41.5852557, "lon": -73.8064845}, {"type": "node", "id": 8983624798, "lat": 41.6037022, "lon": -73.61914, "tags": {"access": "yes", "amenity": "toilets", "changing_table": "no", "toilets:disposal": "pitlatrine", "toilets:handwashing": "no", "unisex": "yes", "wheelchair": "no"}}, {"type": "node", "id": 8984093494, "lat": 41.5641632, "lon": -73.6920254, "tags": {"access": "yes", "amenity": "toilets", "changing_table": "no", "operator": "New York-New Jersey Trail Conference", "toilets:disposal": "pitlatrine", "toilets:handwashing": "no", "unisex": "yes", "wheelchair": "no"}}, {"type": "node", "id": 9628879843, "lat": 41.5758826, "lon": -73.7087522, "tags": {"access": "yes", "amenity": "toilets", "portable": "yes", "toilets:disposal": "chemical", "unisex": "yes"}}, {"type": "node", "id": 10172434400, "lat": 41.4556292, "lon": -73.9887564}, {"type": "node", "id": 10172434401, "lat": 41.4555784, "lon": -73.9887665}, {"type": "node", "id": 10172434402, "lat": 41.4555716, "lon": -73.9887051}, {"type": "node", "id": 10172434403, "lat": 41.4556223, "lon": -73.988695}, {"type": "way", "id": 80434339, "nodes": [938569438, 2408038878, 938569439, 938569440, 938569441, 938569438], "tags": {"amenity": "toilets", "building": "yes"}}, {"type": "way", "id": 159052578, "nodes": [1711557248, 1711557243, 1711557244, 1711557249, 1711557248], "tags": {"amenity": "toilets"}}, {"type": "way", "id": 504769919, "nodes": [4948866475, 4948866476, 4948866477, 4948866478, 4948866475], "tags": {"amenity": "toilets", "building": "yes"}}, {"type": "way", "id": 504769928, "nodes": [4948866491, 4948866492, 4948866493, 4948866494, 4948866491], "tags": {"amenity": "toilets", "building": "yes"}}, {"type": "way", "id": 504769944, "nodes": [4948866507, 4948866508, 4948866509, 4948866510, 4948866507], "tags": {"amenity": "toilets", "building": "yes"}}, {"type": "way", "id": 798177115, "nodes": [7465216849, 7465216850, 7465216851, 7465216852, 7465216849], "tags": {"amenity": "toilets", "building": "yes", "toilets:disposal": "chemical"}}, {"type": "way", "id": 961998330, "nodes": [8898725372, 8898725373, 8898725374, 8898725375, 8898725372], "tags": {"access": "yes", "amenity": "toilets", "building": "yes", "toilets:disposal": "flush", "unisex": "yes", "wheelchair": "yes"}}, {"type": "way", "id": 1111890880, "nodes": [10172434400, 10172434401, 10172434402, 10172434403, 10172434400], "tags": {"amenity": "toilets", "building": "yes", "toilets:disposal": "pitlatrine"}}]}