{"version": 0.6, "generator": "Overpass API 0.7.60 f4c14d41", "osm3s": {"timestamp_osm_base": "2023-05-08T14:20:41Z", "copyright": "The data included in this document is from www.openstreetmap.org. The data is made available under ODbL."}, "elements": [{"type": "node", "id": 2175280399, "lat": 41.7039262, "lon": -74.2890331, "tags": {"amenity": "toilets"}}, {"type": "node", "id": 2259491740, "lat": 41.7955831, "lon": -74.1277051, "tags": {"amenity": "toilets"}}, {"type": "node", "id": 2286352176, "lat": 41.9942347, "lon": -74.0961953, "tags": {"amenity": "toilets", "fee": "no", "toilets:disposal": "chemical", "toilets:unisex": "yes", "wheelchair": "limited"}}, {"type": "node", "id": 2347820864, "lat": 41.923945, "lon": -74.5173051, "tags": {"amenity": "toilets"}}, {"type": "node", "id": 2364526893, "lat": 41.7345054, "lon": -74.2437949, "tags": {"amenity": "toilets"}}, {"type": "node", "id": 2393965012, "lat": 41.670455, "lon": -74.3614791, "tags": {"amenity": "toilets", "description": "two unisex toilets with electrical outlets", "fee": "no", "toilets:disposal": "flush", "toilets:unisex": "yes"}}, {"type": "node", "id": 2406195905, "lat": 41.7271414, "lon": -74.2382966, "tags": {"amenity": "toilets"}}, {"type": "node", "id": 2406916403, "lat": 41.7533485, "lon": -74.1455071, "tags": {"amenity": "toilets"}}, {"type": "node", "id": 2412270245, "lat": 42.0265874, "lon": -74.2278182, "tags": {"amenity": "toilets"}}, {"type": "node", "id": 2412270252, "lat": 42.0264559, "lon": -74.2294061, "tags": {"amenity": "toilets"}}, {"type": "node", "id": 2412270276, "lat": 42.0245311, "lon": -74.2311174, "tags": {"amenity": "toilets"}}, {"type": "node", "id": 2415569693, "lat": 42.0243516, "lon": -74.2214584}, {"type": "node", "id": 2415569727, "lat": 42.0244818, "lon": -74.2216078}, {"type": "node", "id": 2415569729, "lat": 42.0244075, "lon": -74.221725}, {"type": "node", "id": 2415569740, "lat": 42.0242774, "lon": -74.2215756}, {"type": "node", "id": 2420403017, "lat": 41.74458, "lon": -74.1971987, "tags": {"amenity": "toilets"}}, {"type": "node", "id": 2420800473, "lat": 41.736337, "lon": -74.1997277, "tags": {"amenity": "toilets", "changing_table": "no", "fee": "no", "toilets:disposal": "pitlatrine", "toilets:handwashing": "no", "unisex": "yes"}}, {"type": "node", "id": 2427398004, "lat": 41.7371922, "lon": -74.1877881, "tags": {"amenity": "toilets", "changing_table": "no", "fee": "no", "name": "Uber Pooper", "toilets:disposal": "pitlatrine", "toilets:handwashing": "no", "unisex": "yes"}}, {"type": "node", "id": 2906433010, "lat": 42.0458133, "lon": -74.594925, "tags": {"access": "yes", "amenity": "toilets", "drinking_water": "no", "operator": "New York State Department of Environmental Conservation", "toilets:disposal": "pitlatrine", "toilets:position": "seated", "wheelchair": "no"}}, {"type": "node", "id": 3095611183, "lat": 41.6805694, "lon": -74.1633414}, {"type": "node", "id": 3095611204, "lat": 41.6806024, "lon": -74.1634329}, {"type": "node", "id": 3095611221, "lat": 41.6807015, "lon": -74.1632561}, {"type": "node", "id": 3095611440, "lat": 41.6807345, "lon": -74.1633476}, {"type": "node", "id": 3095613278, "lat": 41.6819552, "lon": -74.1647794}, {"type": "node", "id": 3095613291, "lat": 41.6819869, "lon": -74.1648737}, {"type": "node", "id": 3095613306, "lat": 41.6820222, "lon": -74.1647389}, {"type": "node", "id": 3095613315, "lat": 41.682054, "lon": -74.1648332}, {"type": "node", "id": 3468626472, "lat": 41.7970415, "lon": -74.122671, "tags": {"amenity": "toilets"}}, {"type": "node", "id": 3533729402, "lat": 41.7297329, "lon": -74.1869564, "tags": {"amenity": "toilets", "operator": "Shawangunk Gateway Campground", "shower": "yes", "toilets:disposal": "flush"}}, {"type": "node", "id": 3791432650, "lat": 41.7679787, "lon": -74.154387, "tags": {"amenity": "toilets"}}, {"type": "node", "id": 4311323293, "lat": 41.6780248, "lon": -74.1625525}, {"type": "node", "id": 4311323295, "lat": 41.6780532, "lon": -74.1624993}, {"type": "node", "id": 4311323298, "lat": 41.678113, "lon": -74.1626369}, {"type": "node", "id": 4311323299, "lat": 41.6781414, "lon": -74.1625837}, {"type": "node", "id": 6097101901, "lat": 41.7461363, "lon": -74.0893436, "tags": {"amenity": "toilets"}}, {"type": "node", "id": 6782781814, "lat": 41.916209, "lon": -74.4348659, "tags": {"amenity": "toilets", "toilets:disposal": "chemical", "toilets:unisex": "yes"}}, {"type": "node", "id": 7055393554, "lat": 41.9149195, "lon": -74.4291732, "tags": {"amenity": "toilets", "toilets:disposal": "chemical", "unisex": "yes"}}, {"type": "node", "id": 7213431076, "lat": 42.0415875, "lon": -74.1180018}, {"type": "node", "id": 7213431077, "lat": 42.04157, "lon": -74.1179003}, {"type": "node", "id": 7213431078, "lat": 42.0415095, "lon": -74.1179192}, {"type": "node", "id": 7213431079, "lat": 42.041527, "lon": -74.1180207}, {"type": "node", "id": 7757014514, "lat": 42.0020878, "lon": -74.2703619, "tags": {"amenity": "toilets", "toilets:disposal": "chemical", "toilets:unisex": "yes", "wheelchair": "yes"}}, {"type": "node", "id": 7843821113, "lat": 41.9751697, "lon": -74.1970519, "tags": {"amenity": "toilets", "toilets:disposal": "chemical", "toilets:unisex": "yes", "wheelchair": "yes"}}, {"type": "node", "id": 8069694302, "lat": 41.9841847, "lon": -74.0829986, "tags": {"amenity": "toilets", "toilets:disposal": "chemical", "toilets:wheelchair": "yes"}}, {"type": "node", "id": 8490125096, "lat": 41.7388041, "lon": -74.2178655, "tags": {"amenity": "toilets", "changing_table": "no"}}, {"type": "node", "id": 9149639227, "lat": 42.0358003, "lon": -74.3609132}, {"type": "node", "id": 9149639228, "lat": 42.0357097, "lon": -74.3609627}, {"type": "node", "id": 9149639229, "lat": 42.0356608, "lon": -74.3608008}, {"type": "node", "id": 9149639230, "lat": 42.0357513, "lon": -74.3607512}, {"type": "node", "id": 9567041403, "lat": 41.9906431, "lon": -74.5033005}, {"type": "node", "id": 9567041404, "lat": 41.9906239, "lon": -74.5032358}, {"type": "node", "id": 9567041405, "lat": 41.9906576, "lon": -74.5032222}, {"type": "node", "id": 9567041406, "lat": 41.9906503, "lon": -74.5031815}, {"type": "node", "id": 9567041407, "lat": 41.9907244, "lon": -74.5031517}, {"type": "node", "id": 9567041408, "lat": 41.9907326, "lon": -74.5031899}, {"type": "node", "id": 9567041409, "lat": 41.9907638, "lon": -74.503175}, {"type": "node", "id": 9567041410, "lat": 41.9907811, "lon": -74.5032384}, {"type": "node", "id": 10051986042, "lat": 42.0359188, "lon": -74.3581563, "tags": {"access": "yes", "amenity": "toilets", "fee": "no", "female": "yes", "male": "yes", "operator": "Woodland Valley Campground", "toilets:disposal": "flush", "toilets:position": "seated", "wheelchair": "no"}}, {"type": "node", "id": 10073921436, "lat": 41.7218739, "lon": -74.1198955, "tags": {"amenity": "toilets"}}, {"type": "node", "id": 10091145004, "lat": 42.0356797, "lon": -74.3624988, "tags": {"amenity": "toilets"}}, {"type": "way", "id": 233199685, "nodes": [2415569727, 2415569693, 2415569740, 2415569729, 2415569727], "tags": {"amenity": "toilets", "building": "yes"}}, {"type": "way", "id": 304992939, "nodes": [3095613306, 3095613278, 3095613291, 3095613315, 3095613306], "tags": {"amenity": "toilets", "building": "yes"}}, {"type": "way", "id": 305001218, "nodes": [3095611221, 3095611183, 3095611204, 3095611440, 3095611221], "tags": {"amenity": "toilets", "building": "yes", "shower": "yes"}}, {"type": "way", "id": 431899164, "nodes": [4311323298, 4311323299, 4311323295, 4311323293, 4311323298], "tags": {"amenity": "toilets", "building": "yes"}}, {"type": "way", "id": 772627008, "nodes": [7213431076, 7213431077, 7213431078, 7213431079, 7213431076], "tags": {"addr:city": "Woodstock", "addr:housenumber": "10", "addr:postcode": "12498", "addr:state": "NY", "addr:street": "Rock City Road", "amenity": "toilets", "building": "yes", "nysgissam:nysaddresspointid": "ULST046342", "toilets:unisex": "no"}}, {"type": "way", "id": 990104973, "nodes": [9149639230, 9149639229, 9149639228, 9149639227, 9149639230], "tags": {"amenity": "toilets", "building": "yes", "shower": "yes", "toilets:unisex": "no"}}, {"type": "way", "id": 1038884378, "nodes": [9567041403, 9567041404, 9567041405, 9567041406, 9567041407, 9567041408, 9567041409, 9567041410, 9567041403], "tags": {"access": "customers", "amenity": "toilets", "building": "yes", "toilets:disposal": "flush", "unisex": "yes", "wheelchair": "yes"}}]}