{"version": 0.6, "generator": "Overpass API 0.7.60 f4c14d41", "osm3s": {"timestamp_osm_base": "2023-05-08T14:19:39Z", "copyright": "The data included in this document is from www.openstreetmap.org. The data is made available under ODbL."}, "elements": [{"type": "node", "id": 2315452318, "lat": 37.2612217, "lon": -79.9347697, "tags": {"amenity": "toilets"}}, {"type": "node", "id": 2368030614, "lat": 37.274551, "lon": -79.9073155, "tags": {"amenity": "toilets"}}, {"type": "node", "id": 2368054483, "lat": 37.2617786, "lon": -79.9103997, "tags": {"amenity": "toilets"}}, {"type": "node", "id": 2945007603, "lat": 37.281457, "lon": -79.8658613, "tags": {"amenity": "toilets"}}, {"type": "node", "id": 2945007608, "lat": 37.281499, "lon": -79.8676074, "tags": {"amenity": "toilets"}}, {"type": "node", "id": 2945007931, "lat": 37.2878071, "lon": -79.8595251, "tags": {"amenity": "toilets", "source": "GPS"}}, {"type": "node", "id": 2953601426, "lat": 37.3447703, "lon": -79.9278212, "tags": {"amenity": "toilets"}}, {"type": "node", "id": 2956173477, "lat": 37.2412409, "lon": -80.0116665, "tags": {"amenity": "toilets", "source": "GPS"}}, {"type": "node", "id": 2956173481, "lat": 37.2412795, "lon": -80.011722, "tags": {"amenity": "toilets", "source": "GPS"}}, {"type": "node", "id": 2956173487, "lat": 37.2416933, "lon": -80.0094413, "tags": {"amenity": "toilets", "fee": "no"}}, {"type": "node", "id": 2957206680, "lat": 37.2459393, "lon": -79.9804311, "tags": {"amenity": "toilets"}}, {"type": "node", "id": 2962682145, "lat": 37.3833595, "lon": -79.9468553, "tags": {"amenity": "toilets"}}, {"type": "node", "id": 3749280669, "lat": 37.2538073, "lon": -79.948182}, {"type": "node", "id": 3749280670, "lat": 37.2538414, "lon": -79.9481605}, {"type": "node", "id": 3749280671, "lat": 37.2538028, "lon": -79.9480811}, {"type": "node", "id": 3749280672, "lat": 37.253771, "lon": -79.9480989}, {"type": "node", "id": 3749282650, "lat": 37.2513304, "lon": -79.9464324, "tags": {"amenity": "toilets"}}, {"type": "node", "id": 4014990936, "lat": 37.2754249, "lon": -80.0138388}, {"type": "node", "id": 4014990937, "lat": 37.2754149, "lon": -80.0137544}, {"type": "node", "id": 4014990938, "lat": 37.2755349, "lon": -80.013732}, {"type": "node", "id": 4014990939, "lat": 37.2755449, "lon": -80.0138164}, {"type": "node", "id": 4879578240, "lat": 37.2506915, "lon": -79.9326712, "tags": {"amenity": "toilets"}}, {"type": "node", "id": 5345762012, "lat": 37.2565632, "lon": -79.9702863}, {"type": "node", "id": 5345762013, "lat": 37.2565294, "lon": -79.9702878}, {"type": "node", "id": 5345762014, "lat": 37.2565226, "lon": -79.9702881}, {"type": "node", "id": 5345762015, "lat": 37.256503, "lon": -79.970289}, {"type": "node", "id": 5345762016, "lat": 37.2564999, "lon": -79.9701799}, {"type": "node", "id": 5345762017, "lat": 37.2565601, "lon": -79.9701773}, {"type": "node", "id": 5581507799, "lat": 37.2565617, "lon": -79.9702334}, {"type": "node", "id": 5581507804, "lat": 37.2565272, "lon": -79.9701787}, {"type": "node", "id": 9215206977, "lat": 37.2318402, "lon": -79.9507205, "tags": {"amenity": "toilets"}}, {"type": "node", "id": 9251769181, "lat": 37.3844256, "lon": -80.0062002, "tags": {"amenity": "toilets", "toilets:disposal": "pitlatrine", "unisex": "yes"}}, {"type": "node", "id": 9556980617, "lat": 37.4428796, "lon": -79.6096339, "tags": {"access": "yes", "amenity": "toilets", "description": "Closed in winter"}}, {"type": "node", "id": 9625524689, "lat": 37.4423971, "lon": -79.6014717}, {"type": "node", "id": 9625524690, "lat": 37.4423406, "lon": -79.6014402}, {"type": "node", "id": 9625524691, "lat": 37.442355, "lon": -79.6013995}, {"type": "node", "id": 9625524692, "lat": 37.4424114, "lon": -79.601431}, {"type": "node", "id": 9625524693, "lat": 37.441498, "lon": -79.6026271}, {"type": "node", "id": 9625524694, "lat": 37.4414469, "lon": -79.6025533}, {"type": "node", "id": 9625524695, "lat": 37.4414882, "lon": -79.602508}, {"type": "node", "id": 9625524696, "lat": 37.4415393, "lon": -79.6025817}, {"type": "node", "id": 9625524697, "lat": 37.442377, "lon": -79.6028358}, {"type": "node", "id": 9625524698, "lat": 37.4423451, "lon": -79.602758}, {"type": "node", "id": 9625524699, "lat": 37.4423954, "lon": -79.6027252}, {"type": "node", "id": 9625524700, "lat": 37.4424274, "lon": -79.602803}, {"type": "node", "id": 9625524701, "lat": 37.442976, "lon": -79.6055951}, {"type": "node", "id": 9625524702, "lat": 37.4429356, "lon": -79.6055214}, {"type": "node", "id": 9625524703, "lat": 37.4429725, "lon": -79.6054892}, {"type": "node", "id": 9625524704, "lat": 37.443013, "lon": -79.605563}, {"type": "node", "id": 9625524705, "lat": 37.4434652, "lon": -79.6078219}, {"type": "node", "id": 9625524706, "lat": 37.4434716, "lon": -79.6077321}, {"type": "node", "id": 9625524707, "lat": 37.4435145, "lon": -79.6077369}, {"type": "node", "id": 9625524708, "lat": 37.4435081, "lon": -79.6078268}, {"type": "node", "id": 10102517190, "lat": 37.3208263, "lon": -79.9703136, "tags": {"amenity": "toilets", "level": "1", "toilets:disposal": "flush"}}, {"type": "node", "id": 10102517191, "lat": 37.3207814, "lon": -79.9705944, "tags": {"amenity": "toilets", "toilets:disposal": "flush"}}, {"type": "node", "id": 10102517193, "lat": 37.3211226, "lon": -79.9709561, "tags": {"amenity": "toilets", "female": "yes", "toilets:disposal": "flush"}}, {"type": "node", "id": 10102517194, "lat": 37.3211953, "lon": -79.970809, "tags": {"amenity": "toilets", "male": "yes", "toilets:disposal": "flush"}}, {"type": "node", "id": 10311406224, "lat": 37.2830765, "lon": -80.0085136}, {"type": "node", "id": 10311406225, "lat": 37.2830065, "lon": -80.0086095}, {"type": "node", "id": 10311406260, "lat": 37.2831087, "lon": -80.0085506}, {"type": "node", "id": 10311406261, "lat": 37.2830386, "lon": -80.0086466}, {"type": "way", "id": 371355314, "nodes": [3749280672, 3749280669, 3749280670, 3749280671, 3749280672], "tags": {"amenity": "toilets", "building": "yes"}}, {"type": "way", "id": 398754947, "nodes": [4014990936, 4014990937, 4014990938, 4014990939, 4014990936], "tags": {"access": "permissive", "amenity": "toilets", "building": "yes", "fee": "no", "name": "Building 126- Toilet (Picnic Area)", "toilets:disposal": "flush", "unisex": "yes"}}, {"type": "way", "id": 553855505, "nodes": [5345762012, 5345762013, 5345762014, 5345762015, 5345762016, 5581507804, 5345762017, 5581507799, 5345762012], "tags": {"amenity": "toilets", "building": "yes"}}, {"type": "way", "id": 1046739076, "nodes": [9625524692, 9625524691, 9625524690, 9625524689, 9625524692], "tags": {"amenity": "toilets", "building": "yes", "source": "Campground map; VGIN imagery"}}, {"type": "way", "id": 1046739077, "nodes": [9625524696, 9625524695, 9625524694, 9625524693, 9625524696], "tags": {"amenity": "toilets", "building": "yes", "source": "Campground map; VGIN imagery"}}, {"type": "way", "id": 1046739078, "nodes": [9625524700, 9625524699, 9625524698, 9625524697, 9625524700], "tags": {"amenity": "toilets", "building": "yes", "source": "Campground map; VGIN imagery"}}, {"type": "way", "id": 1046739079, "nodes": [9625524704, 9625524703, 9625524702, 9625524701, 9625524704], "tags": {"amenity": "toilets", "building": "yes", "source": "Campground map; VGIN imagery"}}, {"type": "way", "id": 1046739080, "nodes": [9625524708, 9625524707, 9625524706, 9625524705, 9625524708], "tags": {"amenity": "toilets", "building": "yes", "source": "Campground map; VGIN imagery"}}, {"type": "way", "id": 1127835195, "nodes": [10311406261, 10311406225, 10311406224, 10311406260, 10311406261], "tags": {"amenity": "toilets", "building": "yes", "wheelchair": "yes"}}]}