{"version": 0.6, "generator": "Overpass API 0.7.60.2 e4cf9f7a", "osm3s": {"timestamp_osm_base": "2023-05-09T14:49:24Z", "copyright": "The data included in this document is from www.openstreetmap.org. The data is made available under ODbL."}, "elements": [{"type": "node", "id": 366651568, "lat": 44.2699879, "lon": -71.3507453, "tags": {"amenity": "toilets", "created_by": "Potlatch 0.10f", "name": "Base Station Restaurant"}}, {"type": "node", "id": 789149919, "lat": 44.3797939, "lon": -71.10699, "tags": {"amenity": "toilets"}}, {"type": "node", "id": 1286767877, "lat": 44.4080713, "lon": -71.0872177, "tags": {"amenity": "toilets", "name": "Shelburne Rest Area"}}, {"type": "node", "id": 1311324702, "lat": 44.4080713, "lon": -71.0872177, "tags": {"amenity": "toilets", "name": "Shelburne Rest Area"}}, {"type": "node", "id": 1331373813, "lat": 44.310619, "lon": -71.2206361, "tags": {"amenity": "toilets"}}, {"type": "node", "id": 1907360288, "lat": 44.4255405, "lon": -71.4939901, "tags": {"amenity": "toilets"}}, {"type": "node", "id": 1965049139, "lat": 44.3537719, "lon": -71.193074, "tags": {"amenity": "toilets", "name": "Androscogin Ranger Station", "tourism": "information"}}, {"type": "node", "id": 2378592110, "lat": 44.2599372, "lon": -71.2859371, "tags": {"amenity": "toilets", "name": "Summer toilets"}}, {"type": "node", "id": 3425047907, "lat": 44.3348927, "lon": -71.3025596, "tags": {"amenity": "toilets", "toilets:disposal": "pitlatrine"}}, {"type": "node", "id": 4361639003, "lat": 44.407943, "lon": -71.0916709}, {"type": "node", "id": 4361639004, "lat": 44.4079813, "lon": -71.0915314}, {"type": "node", "id": 4361639005, "lat": 44.4078817, "lon": -71.0914777}, {"type": "node", "id": 4361639006, "lat": 44.4078433, "lon": -71.0916172}, {"type": "node", "id": 4361639029, "lat": 44.4085529, "lon": -71.0888803}, {"type": "node", "id": 4361639030, "lat": 44.4085545, "lon": -71.0887306}, {"type": "node", "id": 4361639031, "lat": 44.408413, "lon": -71.0887275}, {"type": "node", "id": 4361639032, "lat": 44.4084113, "lon": -71.0888773}, {"type": "node", "id": 4374469260, "lat": 44.4872754, "lon": -71.461808}, {"type": "node", "id": 4374469625, "lat": 44.4872948, "lon": -71.4617217}, {"type": "node", "id": 4374469684, "lat": 44.4872442, "lon": -71.4616993}, {"type": "node", "id": 4374469821, "lat": 44.4872248, "lon": -71.4617856}, {"type": "node", "id": 6615271228, "lat": 44.3987768, "lon": -71.2307251}, {"type": "node", "id": 6615271229, "lat": 44.3987009, "lon": -71.2307497}, {"type": "node", "id": 6615271230, "lat": 44.3987207, "lon": -71.2308299}, {"type": "node", "id": 6615271231, "lat": 44.3987955, "lon": -71.2308006}, {"type": "node", "id": 6615271232, "lat": 44.3990575, "lon": -71.2299502}, {"type": "node", "id": 6615271233, "lat": 44.3990289, "lon": -71.2298963}, {"type": "node", "id": 6615271234, "lat": 44.3989661, "lon": -71.2299656}, {"type": "node", "id": 6615271235, "lat": 44.3989992, "lon": -71.2300165}, {"type": "node", "id": 6845098951, "lat": 44.5108851, "lon": -70.9192348, "tags": {"amenity": "toilets", "toilets:disposal": "pitlatrine", "unisex": "yes"}}, {"type": "node", "id": 6967372387, "lat": 44.3062078, "lon": -71.0644793}, {"type": "node", "id": 6967372388, "lat": 44.3052527, "lon": -71.0645653}, {"type": "node", "id": 6967372389, "lat": 44.3061709, "lon": -71.0645079}, {"type": "node", "id": 6967372390, "lat": 44.3061823, "lon": -71.0644658}, {"type": "node", "id": 6967372391, "lat": 44.3052027, "lon": -71.0645923}, {"type": "node", "id": 6967372399, "lat": 44.3052296, "lon": -71.0646161}, {"type": "node", "id": 6967372400, "lat": 44.3061963, "lon": -71.0645214}, {"type": "node", "id": 6967372405, "lat": 44.3052259, "lon": -71.0645414}, {"type": "node", "id": 8004570742, "lat": 44.3391955, "lon": -71.2173478}, {"type": "node", "id": 8004570743, "lat": 44.339239, "lon": -71.2173581}, {"type": "node", "id": 8004570744, "lat": 44.3392461, "lon": -71.2172997}, {"type": "node", "id": 8004570745, "lat": 44.3392025, "lon": -71.2172894}, {"type": "node", "id": 8004570746, "lat": 44.3397921, "lon": -71.2181637}, {"type": "node", "id": 8004570747, "lat": 44.3397374, "lon": -71.2181623}, {"type": "node", "id": 8004570748, "lat": 44.3397384, "lon": -71.2180885}, {"type": "node", "id": 8004570749, "lat": 44.339793, "lon": -71.2180899}, {"type": "node", "id": 8182103550, "lat": 44.4258484, "lon": -71.4966386, "tags": {"amenity": "toilets", "wheelchair": "yes"}}, {"type": "node", "id": 8243111995, "lat": 44.2612381, "lon": -71.2854086, "tags": {"access": "yes", "amenity": "toilets", "toilets:disposal": "pitlatrine"}}, {"type": "node", "id": 8243112012, "lat": 44.259954, "lon": -71.285694, "tags": {"amenity": "toilets", "name": "Winter toilets"}}, {"type": "node", "id": 8515576118, "lat": 44.4024693, "lon": -71.2323334, "tags": {"amenity": "toilets"}}, {"type": "node", "id": 8519006353, "lat": 44.4025001, "lon": -71.2261116, "tags": {"amenity": "toilets", "toilets:disposal": "pitlatrine"}}, {"type": "node", "id": 8973060313, "lat": 44.3248156, "lon": -71.2167571, "tags": {"amenity": "toilets", "name": "Dolly Restroom"}}, {"type": "node", "id": 8973111063, "lat": 44.3108852, "lon": -71.2204912, "tags": {"amenity": "toilets"}}, {"type": "node", "id": 9071298307, "lat": 44.5717221, "lon": -71.2865496, "tags": {"access": "yes", "amenity": "toilets"}}, {"type": "node", "id": 9073606619, "lat": 44.5960636, "lon": -71.2692976, "tags": {"access": "yes", "amenity": "toilets"}}, {"type": "node", "id": 9829511618, "lat": 44.2655583, "lon": -71.4998425, "tags": {"access": "yes", "amenity": "toilets"}}, {"type": "node", "id": 9842947929, "lat": 44.2575765, "lon": -71.2534162, "tags": {"amenity": "toilets"}}, {"type": "way", "id": 438418225, "nodes": [4361639003, 4361639004, 4361639005, 4361639006, 4361639003], "tags": {"amenity": "toilets", "building": "yes"}}, {"type": "way", "id": 438418229, "nodes": [4361639029, 4361639030, 4361639031, 4361639032, 4361639029], "tags": {"amenity": "toilets", "building": "yes"}}, {"type": "way", "id": 439762159, "nodes": [4374469260, 4374469625, 4374469684, 4374469821, 4374469260], "tags": {"amenity": "toilets", "building": "yes"}}, {"type": "way", "id": 704411622, "nodes": [6615271228, 6615271229, 6615271230, 6615271231, 6615271228], "tags": {"amenity": "toilets", "building": "yes", "building:levels": "1"}}, {"type": "way", "id": 704411623, "nodes": [6615271232, 6615271233, 6615271234, 6615271235, 6615271232], "tags": {"amenity": "toilets", "building": "yes", "building:levels": "1"}}, {"type": "way", "id": 744441613, "nodes": [6967372400, 6967372387, 6967372390, 6967372389, 6967372400], "tags": {"amenity": "toilets", "building": "yes"}}, {"type": "way", "id": 744441614, "nodes": [6967372399, 6967372391, 6967372405, 6967372388, 6967372399], "tags": {"amenity": "toilets", "building": "yes"}}, {"type": "way", "id": 858684025, "nodes": [8004570742, 8004570743, 8004570744, 8004570745, 8004570742], "tags": {"amenity": "toilets", "building": "yes"}}, {"type": "way", "id": 858684026, "nodes": [8004570746, 8004570747, 8004570748, 8004570749, 8004570746], "tags": {"amenity": "toilets", "building": "yes"}}]}