{"version": 0.6, "generator": "Overpass API 0.7.60.2 e4cf9f7a", "osm3s": {"timestamp_osm_base": "2023-05-09T14:47:24Z", "copyright": "The data included in this document is from www.openstreetmap.org. The data is made available under ODbL."}, "elements": [{"type": "node", "id": 1423451559, "lat": 39.3919241, "lon": -78.227079, "tags": {"access": "yes", "amenity": "toilets", "changing_table": "no", "changing_table:fee": "no", "changing_table:location": "unisex_toilet", "drinking_water": "no", "fee": "no", "name": "Shockeys Knob Shelter Toilet", "toilets:disposal": "pitlatrine", "toilets:position": "seated", "unisex": "yes"}}, {"type": "node", "id": 1805503435, "lat": 39.715635, "lon": -78.2811741}, {"type": "node", "id": 1805503436, "lat": 39.7156523, "lon": -78.2812485}, {"type": "node", "id": 1805503437, "lat": 39.7156611, "lon": -78.2811106}, {"type": "node", "id": 1805503441, "lat": 39.7157053, "lon": -78.281283}, {"type": "node", "id": 1805503442, "lat": 39.7157134, "lon": -78.2810874}, {"type": "node", "id": 1805503444, "lat": 39.7157592, "lon": -78.2812593}, {"type": "node", "id": 1805503445, "lat": 39.7157663, "lon": -78.2811204}, {"type": "node", "id": 1805503448, "lat": 39.7157849, "lon": -78.2811947}, {"type": "node", "id": 1978699302, "lat": 39.5445156, "lon": -78.4608856, "tags": {"access": "yes", "amenity": "toilets", "fee": "no", "operator": "National Park Service", "toilets:disposal": "chemical", "toilets:position": "seated;urinal", "unisex": "yes", "wheelchair": "yes"}}, {"type": "node", "id": 2258481112, "lat": 39.6264393, "lon": -78.2288873, "tags": {"amenity": "toilets"}}, {"type": "node", "id": 2819012955, "lat": 39.3857396, "lon": -78.2749678}, {"type": "node", "id": 2819012956, "lat": 39.3856805, "lon": -78.2750168}, {"type": "node", "id": 2819012957, "lat": 39.3856359, "lon": -78.2749268}, {"type": "node", "id": 2819012958, "lat": 39.385695, "lon": -78.2748779}, {"type": "node", "id": 3174990647, "lat": 39.7369119, "lon": -78.1805331, "tags": {"amenity": "toilets"}}, {"type": "node", "id": 4190448315, "lat": 39.5303868, "lon": -78.5882707, "tags": {"access": "yes", "amenity": "toilets", "fee": "no", "toilets:disposal": "chemical", "toilets:position": "seated;urinal", "unisex": "yes", "wheelchair": "no"}}, {"type": "node", "id": 4486992710, "lat": 39.6248138, "lon": -78.3856176}, {"type": "node", "id": 4486992711, "lat": 39.6248022, "lon": -78.3856143}, {"type": "node", "id": 4486992712, "lat": 39.6247942, "lon": -78.3856258}, {"type": "node", "id": 4486992713, "lat": 39.6247978, "lon": -78.3856405}, {"type": "node", "id": 4486992714, "lat": 39.6248095, "lon": -78.3856437}, {"type": "node", "id": 4486992715, "lat": 39.6248175, "lon": -78.3856323}, {"type": "node", "id": 4486992716, "lat": 39.624783, "lon": -78.385964}, {"type": "node", "id": 4486992717, "lat": 39.6247802, "lon": -78.3860048}, {"type": "node", "id": 4486992718, "lat": 39.6248237, "lon": -78.3860099}, {"type": "node", "id": 4486992719, "lat": 39.6248265, "lon": -78.3859691}, {"type": "node", "id": 4502704723, "lat": 39.6219016, "lon": -78.2820819, "tags": {"amenity": "toilets", "operator": "National Park Service", "toilets:disposal": "chemical"}}, {"type": "node", "id": 4502704735, "lat": 39.6274724, "lon": -78.3617661, "tags": {"amenity": "toilets", "operator": "National Park Service", "toilets:disposal": "chemical"}}, {"type": "node", "id": 5157310785, "lat": 39.6849553, "lon": -78.1133482, "tags": {"access": "yes", "amenity": "toilets", "fee": "no", "operator": "National Park Service", "toilets:disposal": "chemical", "toilets:position": "seated;urinal", "unisex": "yes"}}, {"type": "node", "id": 5157337067, "lat": 39.6502546, "lon": -78.0484428, "tags": {"amenity": "toilets", "operator": "National Park Service", "toilets:disposal": "chemical", "toilets:position": "seated;urinal", "unisex": "yes"}}, {"type": "node", "id": 6041987450, "lat": 39.6326662, "lon": -78.1110005, "tags": {"access": "yes", "amenity": "toilets", "name": "Last Chance Privy", "operator": "PATC", "toilets:disposal": "pitlatrine"}}, {"type": "node", "id": 6107493659, "lat": 39.519057, "lon": -78.2933688}, {"type": "node", "id": 6107493660, "lat": 39.519011, "lon": -78.2932474}, {"type": "node", "id": 6107493661, "lat": 39.518951, "lon": -78.293292}, {"type": "node", "id": 6107493662, "lat": 39.518997, "lon": -78.2934118}, {"type": "node", "id": 6553308895, "lat": 39.4936608, "lon": -78.3165247, "tags": {"amenity": "toilets"}}, {"type": "node", "id": 6968433392, "lat": 39.6563022, "lon": -78.2445169}, {"type": "node", "id": 6968433393, "lat": 39.6562536, "lon": -78.2444415}, {"type": "node", "id": 6968433394, "lat": 39.6561836, "lon": -78.2445176}, {"type": "node", "id": 6968433395, "lat": 39.6562323, "lon": -78.244593}, {"type": "node", "id": 6968433396, "lat": 39.6570909, "lon": -78.2441444}, {"type": "node", "id": 6968433397, "lat": 39.6571259, "lon": -78.2440101}, {"type": "node", "id": 6968433398, "lat": 39.6572174, "lon": -78.2440504}, {"type": "node", "id": 6968433399, "lat": 39.6571825, "lon": -78.2441846}, {"type": "node", "id": 6968433400, "lat": 39.6580614, "lon": -78.2419487}, {"type": "node", "id": 6968433401, "lat": 39.6579955, "lon": -78.2419028}, {"type": "node", "id": 6968433402, "lat": 39.6579505, "lon": -78.2420115}, {"type": "node", "id": 6968433403, "lat": 39.6580164, "lon": -78.2420574}, {"type": "node", "id": 6970326549, "lat": 39.5835896, "lon": -78.3979909, "tags": {"amenity": "toilets", "operator": "National Park Service", "toilets:disposal": "chemical", "toilets:position": "seated;urinal", "unisex": "yes", "wheelchair": "no"}}, {"type": "node", "id": 6970326554, "lat": 39.5806436, "lon": -78.4122117}, {"type": "node", "id": 6970326555, "lat": 39.5806582, "lon": -78.4122651}, {"type": "node", "id": 6970326556, "lat": 39.5806858, "lon": -78.4122525}, {"type": "node", "id": 6970326557, "lat": 39.5806712, "lon": -78.4121991}, {"type": "node", "id": 6970338153, "lat": 39.5715359, "lon": -78.4534657, "tags": {"amenity": "toilets", "operator": "National Park Service", "toilets:disposal": "chemical", "toilets:position": "seated;urinal", "unisex": "yes", "wheelchair": "no"}}, {"type": "node", "id": 6970338159, "lat": 39.549507, "lon": -78.4630546, "tags": {"amenity": "toilets", "fee": "no", "operator": "National Park Service", "toilets:disposal": "chemical", "toilets:position": "seated;urinal", "unisex": "yes", "wheelchair": "no"}}, {"type": "node", "id": 6970338168, "lat": 39.5353675, "lon": -78.4644762, "tags": {"amenity": "toilets", "toilets:disposal": "chemical", "toilets:position": "seated;urinal", "unisex": "yes", "wheelchair": "no"}}, {"type": "node", "id": 7939914405, "lat": 39.7186985, "lon": -78.2807122, "tags": {"amenity": "toilets", "fee": "no"}}, {"type": "node", "id": 8014092093, "lat": 39.622836, "lon": -78.413824, "tags": {"amenity": "toilets", "operator": "National Park Service", "toilets:disposal": "chemical", "toilets:position": "seated;urinal", "unisex": "yes"}}, {"type": "node", "id": 10116966437, "lat": 39.6991219, "lon": -78.1835575}, {"type": "node", "id": 10126373466, "lat": 39.6990685, "lon": -78.1835678}, {"type": "node", "id": 10126373467, "lat": 39.6990637, "lon": -78.1835255}, {"type": "node", "id": 10126373468, "lat": 39.699117, "lon": -78.1835152}, {"type": "way", "id": 169382303, "nodes": [1805503448, 1805503444, 1805503441, 1805503436, 1805503435, 1805503437, 1805503442, 1805503445, 1805503448], "tags": {"amenity": "toilets", "building": "yes", "fee": "no", "source": "USGS Ortho"}}, {"type": "way", "id": 277385999, "nodes": [2819012955, 2819012956, 2819012957, 2819012958, 2819012955], "tags": {"amenity": "toilets", "building": "yes"}}, {"type": "way", "id": 451892425, "nodes": [4486992715, 4486992714, 4486992713, 4486992712, 4486992711, 4486992710, 4486992715], "tags": {"access": "yes", "amenity": "toilets", "building": "yes", "operator": "National Park Service", "toilets:disposal": "chemical", "toilets:position": "seated;urinal", "unisex": "yes", "wheelchair": "yes"}}, {"type": "way", "id": 451892430, "nodes": [4486992719, 4486992718, 4486992717, 4486992716, 4486992719], "tags": {"access": "yes", "amenity": "toilets", "building": "yes", "operator": "National Park Service", "toilets:disposal": "pitlatrine", "toilets:position": "seated", "unisex": "yes", "wheelchair": "yes"}}, {"type": "way", "id": 651235247, "nodes": [6107493659, 6107493660, 6107493661, 6107493662, 6107493659], "tags": {"access": "yes", "amenity": "toilets", "building": "yes", "toilets:disposal": "flush"}}, {"type": "way", "id": 744557524, "nodes": [6968433392, 6968433393, 6968433394, 6968433395, 6968433392], "tags": {"amenity": "toilets", "building": "yes"}}, {"type": "way", "id": 744557525, "nodes": [6968433399, 6968433396, 6968433397, 6968433398, 6968433399], "tags": {"amenity": "toilets", "building": "yes", "self_service": "yes", "shop": "laundry"}}, {"type": "way", "id": 744557526, "nodes": [6968433400, 6968433401, 6968433402, 6968433403, 6968433400], "tags": {"amenity": "toilets", "building": "yes"}}, {"type": "way", "id": 744766035, "nodes": [6970326557, 6970326556, 6970326555, 6970326554, 6970326557], "tags": {"amenity": "toilets", "building": "yes", "female": "yes", "male": "yes", "toilets:disposal": "pitlatrine", "toilets:position": "seated", "wheelchair": "yes"}}, {"type": "way", "id": 1106621038, "nodes": [10126373468, 10126373467, 10126373466, 10116966437, 10126373468], "tags": {"amenity": "toilets", "building": "toilets", "changing_table": "no", "wheelchair": "yes"}}]}